[{"OBJECT_NAME":"JILIN-1 KUANFU 01C","OBJECT_ID":"2022-048A","EPOCH":"2026-03-09T22:44:12.026688","MEAN_MOTION":15.09601076,"ECCENTRICITY":0.00140886,"INCLINATION":97.5312,"RA_OF_ASC_NODE":147.8831,"ARG_OF_PERICENTER":308.8335,"MEAN_ANOMALY":51.1636,"EPHEMERIS_TYPE":0,"CLASSIFICATION_TYPE":"U","NORAD_CAT_ID":52443,"ELEMENT_SET_NO":999,"REV_AT_EPOCH":21222,"BSTAR":0.00028577595,"MEAN_MOTION_DOT":4.539e-5,"MEAN_MOTION_DDOT":0},{"OBJECT_NAME":"STARLINK-34683","OBJECT_ID":"2025-152R","EPOCH":"2026-03-09T14:09:48.299904","MEAN_MOTION":15.05649619,"ECCENTRICITY":0.0002136,"INCLINATION":97.6013,"RA_OF_ASC_NODE":285.4335,"ARG_OF_PERICENTER":79.2546,"MEAN_ANOMALY":280.8921,"EPHEMERIS_TYPE":0,"CLASSIFICATION_TYPE":"U","NORAD_CAT_ID":64857,"ELEMENT_SET_NO":999,"REV_AT_EPOCH":3540,"BSTAR":0.00021944,"MEAN_MOTION_DOT":3.107e-5,"MEAN_MOTION_DDOT":0}]
